0 COSMOS 775
1 08357U 75097A   13280.55327847 -.00000362  00000-0  10000-3 0  1196
2 08357 012.0278 325.0313 0009881 059.3901 300.6861 01.00237657 85283
0 COSMOS 775
1 08357U 75097A   13282.54846967 -.00000366  00000-0  10000-3 0  1202
2 08357 012.0258 325.0104 0009725 060.1084 299.9643 01.00236603 85309
0 COSMOS 775
1 08357U 75097A   13283.54611028  .00000000  00000-0  10000-3 0  1216
2 08357 012.0246 325.0010 0009318 060.1958 299.8769 01.00231599 85318
0 COSMOS 775
1 08357U 75097A   13284.54369011 -.00000370  00000-0  10000-3 0  1210
2 08357 012.0238 324.9903 0009583 060.6237 299.4483 01.00235561 85320
0 COSMOS 775
1 08357U 75097A   13287.53653562 -.00000374  00000-0  10000-3 0  1224
2 08357 012.0206 324.9615 0009593 061.6001 298.4630 01.00234003 85352
0 COSMOS 775
1 08357U 75097A   13290.52940644 -.00000372  00000-0  10000-3 0  1236
2 08357 012.0174 324.9326 0009515 061.8655 298.1780 01.00232406 85387
0 COSMOS 775
1 08357U 75097A   13290.52941940  .00000000  00000-0  10000-3 0  1244
2 08357 012.0173 324.9334 0009323 059.3805 300.6654 01.00228130 85389
0 COSMOS 775
1 08357U 75097A   13293.52235265 -.00000365  00000-0  10000-3 0  1248
2 08357 012.0141 324.9035 0009413 061.5898 298.4489 01.00230884 85412
